{
    "links": {
        "self": "http://www.neowsapp.com/rest/v1/neo/3132128?api_key=iIulBulltgU6a56xZRHN4H3l9WmuAYTsLGpBGhQ2"
    },
    "id": "3132128",
    "neo_reference_id": "3132128",
    "name": "(2002 PR1)",
    "designation": "2002 PR1",
    "nasa_jpl_url": "http://ssd.jpl.nasa.gov/sbdb.cgi?sstr=3132128",
    "absolute_magnitude_h": 21.9,
    "estimated_diameter": {
        "kilometers": {
            "estimated_diameter_min": 0.1108038821,
            "estimated_diameter_max": 0.2477650126
        },
        "meters": {
            "estimated_diameter_min": 110.8038821264,
            "estimated_diameter_max": 247.7650126055
        },
        "miles": {
            "estimated_diameter_min": 0.068850319,
            "estimated_diameter_max": 0.1539539936
        },
        "feet": {
            "estimated_diameter_min": 363.5298086356,
            "estimated_diameter_max": 812.8773639568
        }
    },
    "is_potentially_hazardous_asteroid": true,
    "close_approach_data": [
        {
            "close_approach_date": "1998-10-25",
            "close_approach_date_full": "1998-Oct-25 13:52",
            "epoch_date_close_approach": 909323520000,
            "relative_velocity": {
                "kilometers_per_second": "14.0196562393",
                "kilometers_per_hour": "50470.7624616424",
                "miles_per_hour": "31360.5690417911"
            },
            "miss_distance": {
                "astronomical": "0.233114981",
                "lunar": "90.681727609",
                "kilometers": "34873504.62269047",
                "miles": "21669390.949529686"
            },
            "orbiting_body": "Earth"
        },
        {
            "close_approach_date": "2002-08-22",
            "close_approach_date_full": "2002-Aug-22 21:29",
            "epoch_date_close_approach": 1030051740000,
            "relative_velocity": {
                "kilometers_per_second": "9.8762322488",
                "kilometers_per_hour": "35554.4360958537",
                "miles_per_hour": "22092.1439174486"
            },
            "miss_distance": {
                "astronomical": "0.0631318391",
                "lunar": "24.5582854099",
                "kilometers": "9444388.658542717",
                "miles": "5868470.9878028146"
            },
            "orbiting_body": "Earth"
        },
        {
            "close_approach_date": "2004-08-22",
            "close_approach_date_full": "2004-Aug-22 12:34",
            "epoch_date_close_approach": 1093178040000,
            "relative_velocity": {
                "kilometers_per_second": "3.1191670472",
                "kilometers_per_hour": "11229.0013698429",
                "miles_per_hour": "6977.2647678337"
            },
            "miss_distance": {
                "astronomical": "1.4930903105",
                "lunar": "580.8121307845",
                "kilometers": "223363130.168438635",
                "miles": "138791413.243317763"
            },
            "orbiting_body": "Juptr"
        },
        {
            "close_approach_date": "2006-07-30",
            "close_approach_date_full": "2006-Jul-30 14:40",
            "epoch_date_close_approach": 1154270400000,
            "relative_velocity": {
                "kilometers_per_second": "17.1875188576",
                "kilometers_per_hour": "61875.0678872948",
                "miles_per_hour": "38446.760932525"
            },
            "miss_distance": {
                "astronomical": "0.3103861118",
                "lunar": "120.7401974902",
                "kilometers": "46433101.202861866",
                "miles": "28852191.1935751108"
            },
            "orbiting_body": "Earth"
        }
    ],
    "orbital_data": {
        "orbit_id": "23",
        "orbit_determination_date": "2017-04-06 09:14:59",
        "first_observation_date": "2002-08-04",
        "last_observation_date": "2002-10-31",
        "data_arc_in_days": 88,
        "observations_used": 101,
        "orbit_uncertainty": "6",
        "minimum_orbit_intersection": ".0431945",
        "jupiter_tisserand_invariant": "3.199",
        "epoch_osculation": "2459000.5",
        "eccentricity": ".5876769096765316",
        "semi_major_axis": "2.494076586826467",
        "inclination": "6.58690667482464",
        "ascending_node_longitude": "148.2718441132601",
        "orbital_period": "1438.676352028374",
        "perihelion_distance": "1.028365365783697",
        "perihelion_argument": "208.3541467645963",
        "aphelion_distance": "3.959787807869236",
        "perihelion_time": "2458298.220790838417",
        "mean_anomaly": "175.7313345296327",
        "mean_motion": ".2502300114215682",
        "equinox": "J2000",
        "orbit_class": {
            "orbit_class_type": "AMO",
            "orbit_class_description": "Near-Earth asteroid orbits similar to that of 1221 Amor",
            "orbit_class_range": "1.017 AU < q (perihelion) < 1.3 AU"
        }
    },
    "is_sentry_object": false
}